{
  "type": "FeatureCollection",
  "features": [
    {
      "type": "Feature",
      "properties": {
        "norad_id": 34350,
        "name": "IRIDIUM 33 DEB",
        "group": "iridium-33-debris",
        "lat": -40.68229711101808,
        "lon": -2.9931774199664956,
        "alt_km": 762.5542054650432,
        "timestamp": "2025-12-18T19:29:52.927630+00:00",
        "meta_object_name": "IRIDIUM 33 DEB",
        "meta_object_id": "1997-051ES",
        "meta_epoch": "2025-12-18T01:40:51.532896",
        "meta_mean_motion": 14.45399099,
        "meta_eccentricity": 0.00232171,
        "meta_inclination": 86.3271,
        "meta_ra_of_asc_node": 0.4941,
        "meta_arg_of_pericenter": 118.7766,
        "meta_mean_anomaly": 300.1907,
        "meta_ephemeris_type": 0,
        "meta_classification_type": "U",
        "meta_norad_cat_id": 34350,
        "meta_element_set_no": 999,
        "meta_rev_at_epoch": 88370,
        "meta_bstar": 0.00026444097,
        "meta_mean_motion_dot": 9.53e-06,
        "meta_mean_motion_ddot": 0,
        "tle_line1": "1 34350U 97051ES  25352.07004089  .00000953  00000+0  26444-3 0  9991",
        "tle_line2": "2 34350  86.3271   0.4941 0023217 118.7766 300.1907 14.45399099883702"
      },
      "geometry": {
        "type": "Point",
        "coordinates": [
          -2.9931774199664956,
          -40.68229711101808
        ]
      }
    },
    {
      "type": "Feature",
      "properties": {
        "norad_id": 34366,
        "name": "IRIDIUM 33 DEB",
        "group": "iridium-33-debris",
        "lat": 62.667961213013434,
        "lon": -140.38310791935154,
        "alt_km": 690.0639618596051,
        "timestamp": "2025-12-18T19:29:52.927640+00:00",
        "meta_object_name": "IRIDIUM 33 DEB",
        "meta_object_id": "1997-051FJ",
        "meta_epoch": "2025-12-18T04:20:48.619392",
        "meta_mean_motion": 14.54101202,
        "meta_eccentricity": 0.00228764,
        "meta_inclination": 86.3697,
        "meta_ra_of_asc_node": 46.9472,
        "meta_arg_of_pericenter": 122.6423,
        "meta_mean_anomaly": 291.8477,
        "meta_ephemeris_type": 0,
        "meta_classification_type": "U",
        "meta_norad_cat_id": 34366,
        "meta_element_set_no": 999,
        "meta_rev_at_epoch": 88261,
        "meta_bstar": 0.00074238134,
        "meta_mean_motion_dot": 3.166e-05,
        "meta_mean_motion_ddot": 0,
        "tle_line1": "1 34366U 97051FJ  25352.18111828  .00003166  00000+0  74238-3 0  9993",
        "tle_line2": "2 34366  86.3697  46.9472 0022876 122.6423 291.8477 14.54101202882613"
      },
      "geometry": {
        "type": "Point",
        "coordinates": [
          -140.38310791935154,
          62.667961213013434
        ]
      }
    },
    {
      "type": "Feature",
      "properties": {
        "norad_id": 34375,
        "name": "IRIDIUM 33 DEB",
        "group": "iridium-33-debris",
        "lat": -36.27543359207736,
        "lon": 177.62753221245225,
        "alt_km": 898.6278337482954,
        "timestamp": "2025-12-18T19:29:52.927650+00:00",
        "meta_object_name": "IRIDIUM 33 DEB",
        "meta_object_id": "1997-051FT",
        "meta_epoch": "2025-12-18T00:04:51.262176",
        "meta_mean_motion": 14.18002032,
        "meta_eccentricity": 0.01035862,
        "meta_inclination": 86.4322,
        "meta_ra_of_asc_node": 180.5781,
        "meta_arg_of_pericenter": 110.261,
        "meta_mean_anomaly": 46.7272,
        "meta_ephemeris_type": 0,
        "meta_classification_type": "U",
        "meta_norad_cat_id": 34375,
        "meta_element_set_no": 999,
        "meta_rev_at_epoch": 86786,
        "meta_bstar": 0.00035589737,
        "meta_mean_motion_dot": 7.88e-06,
        "meta_mean_motion_ddot": 0,
        "tle_line1": "1 34375U 97051FT  25352.00337109  .00000788  00000+0  35590-3 0  9991",
        "tle_line2": "2 34375  86.4322 180.5781 0103586 110.2610  46.7272 14.18002032867867"
      },
      "geometry": {
        "type": "Point",
        "coordinates": [
          177.62753221245225,
          -36.27543359207736
        ]
      }
    },
    {
      "type": "Feature",
      "properties": {
        "norad_id": 34376,
        "name": "IRIDIUM 33 DEB",
        "group": "iridium-33-debris",
        "lat": -50.99491998042769,
        "lon": -171.60484974063638,
        "alt_km": 689.742553142898,
        "timestamp": "2025-12-18T19:29:52.927660+00:00",
        "meta_object_name": "IRIDIUM 33 DEB",
        "meta_object_id": "1997-051FU",
        "meta_epoch": "2025-12-18T05:18:41.561568",
        "meta_mean_motion": 14.62642322,
        "meta_eccentricity": 0.00278552,
        "meta_inclination": 86.298,
        "meta_ra_of_asc_node": 4.0758,
        "meta_arg_of_pericenter": 148.5031,
        "meta_mean_anomaly": 211.7855,
        "meta_ephemeris_type": 0,
        "meta_classification_type": "U",
        "meta_norad_cat_id": 34376,
        "meta_element_set_no": 999,
        "meta_rev_at_epoch": 88087,
        "meta_bstar": 0.0011778861,
        "meta_mean_motion_dot": 6.044e-05,
        "meta_mean_motion_ddot": 0,
        "tle_line1": "1 34376U 97051FU  25352.22131437  .00006044  00000+0  11779-2 0  9995",
        "tle_line2": "2 34376  86.2980   4.0758 0027855 148.5031 211.7855 14.62642322880873"
      },
      "geometry": {
        "type": "Point",
        "coordinates": [
          -171.60484974063638,
          -50.99491998042769
        ]
      }
    },
    {
      "type": "Feature",
      "properties": {
        "norad_id": 34486,
        "name": "IRIDIUM 33 DEB",
        "group": "iridium-33-debris",
        "lat": 83.90319573950225,
        "lon": 153.02188128440747,
        "alt_km": 561.9671362227582,
        "timestamp": "2025-12-18T19:29:52.927671+00:00",
        "meta_object_name": "IRIDIUM 33 DEB",
        "meta_object_id": "1997-051GB",
        "meta_epoch": "2025-12-18T07:54:13.438944",
        "meta_mean_motion": 14.96045474,
        "meta_eccentricity": 0.00139022,
        "meta_inclination": 86.3928,
        "meta_ra_of_asc_node": 9.4447,
        "meta_arg_of_pericenter": 96.2272,
        "meta_mean_anomaly": 278.5598,
        "meta_ephemeris_type": 0,
        "meta_classification_type": "U",
        "meta_norad_cat_id": 34486,
        "meta_element_set_no": 999,
        "meta_rev_at_epoch": 89070,
        "meta_bstar": 0.0019050072,
        "meta_mean_motion_dot": 0.00021492,
        "meta_mean_motion_ddot": 0,
        "tle_line1": "1 34486U 97051GB  25352.32932221  .00021492  00000+0  19050-2 0  9992",
        "tle_line2": "2 34486  86.3928   9.4447 0013902  96.2272 278.5598 14.96045474890706"
      },
      "geometry": {
        "type": "Point",
        "coordinates": [
          153.02188128440747,
          83.90319573950225
        ]
      }
    },
    {
      "type": "Feature",
      "properties": {
        "norad_id": 34487,
        "name": "IRIDIUM 33 DEB",
        "group": "iridium-33-debris",
        "lat": 38.80978740075417,
        "lon": 12.711158576655313,
        "alt_km": 737.0372391210267,
        "timestamp": "2025-12-18T19:29:52.927680+00:00",
        "meta_object_name": "IRIDIUM 33 DEB",
        "meta_object_id": "1997-051GC",
        "meta_epoch": "2025-12-18T07:45:56.041056",
        "meta_mean_motion": 14.43223269,
        "meta_eccentricity": 0.00331222,
        "meta_inclination": 86.3431,
        "meta_ra_of_asc_node": 9.9731,
        "meta_arg_of_pericenter": 110.9986,
        "meta_mean_anomaly": 270.0816,
        "meta_ephemeris_type": 0,
        "meta_classification_type": "U",
        "meta_norad_cat_id": 34487,
        "meta_element_set_no": 999,
        "meta_rev_at_epoch": 88329,
        "meta_bstar": 0.00015301486,
        "meta_mean_motion_dot": 5.38e-06,
        "meta_mean_motion_ddot": 0,
        "tle_line1": "1 34487U 97051GC  25352.32356529  .00000538  00000+0  15301-3 0  9998",
        "tle_line2": "2 34487  86.3431   9.9731 0033122 110.9986 270.0816 14.43223269883297"
      },
      "geometry": {
        "type": "Point",
        "coordinates": [
          12.711158576655313,
          38.80978740075417
        ]
      }
    },
    {
      "type": "Feature",
      "properties": {
        "norad_id": 34488,
        "name": "IRIDIUM 33 DEB",
        "group": "iridium-33-debris",
        "lat": 73.51572404185754,
        "lon": 110.24815964429844,
        "alt_km": 463.122308293543,
        "timestamp": "2025-12-18T19:29:52.927691+00:00",
        "meta_object_name": "IRIDIUM 33 DEB",
        "meta_object_id": "1997-051GD",
        "meta_epoch": "2025-12-18T03:20:54.566016",
        "meta_mean_motion": 15.30728918,
        "meta_eccentricity": 0.00115761,
        "meta_inclination": 86.3225,
        "meta_ra_of_asc_node": 303.1359,
        "meta_arg_of_pericenter": 41.9025,
        "meta_mean_anomaly": 318.3108,
        "meta_ephemeris_type": 0,
        "meta_classification_type": "U",
        "meta_norad_cat_id": 34488,
        "meta_element_set_no": 999,
        "meta_rev_at_epoch": 89322,
        "meta_bstar": 0.0037310323,
        "meta_mean_motion_dot": 0.00112448,
        "meta_mean_motion_ddot": 0,
        "tle_line1": "1 34488U 97051GD  25352.13952044  .00112448  00000+0  37310-2 0  9999",
        "tle_line2": "2 34488  86.3225 303.1359 0011576  41.9025 318.3108 15.30728918893222"
      },
      "geometry": {
        "type": "Point",
        "coordinates": [
          110.24815964429844,
          73.51572404185754
        ]
      }
    }
  ]
}